NORAD_CAT_ID,OBJECT_NAME,OBJECT_TYPE,EPOCH,MEAN_MOTION,ECCENTRICITY,INCLINATION,RA_OF_ASC_NODE,ARG_OF_PERICENTER,MEAN_ANOMALY,BSTAR,MEAN_MOTION_DOT,MEAN_MOTION_DDOT,TLE_LINE0,TLE_LINE1,TLE_LINE2,SEMIMAJOR_AXIS,PERIOD,APOGEE,PERIGEE,DECAYED
54074.0,STARLINK-5192,PAYLOAD,2022-11-16 22:00:08,15.49885047,0.0001483,53.2174,13.726,48.3242,342.2753,8.9018e-06,5.4e-07,0.0,0 STARLINK-5192,1 54074U 22136Z   22320.91675926  .00000054  00000-0  89018-5 0  9998,2 54074  53.2174  13.7260 0001483  48.3242 342.2753 15.49885047  1303,6795.199000000001,92.91,418.072,416.056,0.0
54074.0,STARLINK-5192,PAYLOAD,2022-11-17 06:00:00,15.49888239,0.0001449,53.2158,12.1392,50.1142,41.0789,-0.00021861,-0.0001284,0.0,0 STARLINK-5192,1 54074U 22136Z   22321.25001157 -.00012840  00000-0 -21861-3 0  9993,2 54074  53.2158  12.1392 0001449  50.1142  41.0789 15.49888239  4847,6795.19,92.91,418.039,416.07,0.0
54074.0,STARLINK-5192,PAYLOAD,2022-11-17 14:00:01,15.49852916,0.0001621,53.2158,10.547,41.9262,110.1848,0.0012474,0.00070909,0.0,0 STARLINK-5192,1 54074U 22136Z   22321.58334491  .00070909  00000-0  12474-2 0  9996,2 54074  53.2158  10.5470 0001621  41.9262 110.1848 15.49852916  1304,6795.293000000002,92.912,418.259,416.056,0.0
54074.0,STARLINK-5192,PAYLOAD,2022-11-17 22:00:00,15.49884258,0.000149,53.2163,8.9528,46.0883,166.9329,0.00044277,0.00024757,0.0,0 STARLINK-5192,1 54074U 22136Z   22321.91667824  .00024757  00000-0  44277-3 0  9999,2 54074  53.2163   8.9528 0001490  46.0883 166.9329 15.49884258  4955,6795.201,92.91,418.079,416.054,0.0
54074.0,STARLINK-5192,PAYLOAD,2022-11-18 14:00:01,15.49832659,0.0001629,53.2163,5.7685,35.4634,299.4253,0.00098667,0.00055844,0.0,0 STARLINK-5192,1 54074U 22136Z   22322.58334491  .00055844  00000-0  98667-3 0  9997,2 54074  53.2163   5.7685 0001629  35.4634 299.4253 15.49832659  5052,6795.352,92.913,418.324,416.11,0.0
54074.0,STARLINK-5192,PAYLOAD,2022-11-18 22:00:00,15.49849458,0.0001453,53.2163,4.1736,40.3633,355.4067,0.00060347,0.00033904,0.0,0 STARLINK-5192,1 54074U 22136Z   22322.91667824  .00033904  00000-0  60347-3 0  9990,2 54074  53.2163   4.1736 0001453  40.3633 355.4067 15.49849458  1306,6795.303000000001,92.912,418.155,416.181,0.0
54074.0,STARLINK-5192,PAYLOAD,2022-11-19 08:00:01,15.49887083,0.0001645,53.2159,2.1836,39.884,161.9986,-0.00018781,-0.00011097,0.0,0 STARLINK-5192,1 54074U 22136Z   22323.33334491 -.00011097  00000-0 -18781-3 0  9994,2 54074  53.2159   2.1836 0001645  39.8840 161.9986 15.49887083  5171,6795.193,92.91,418.176,415.94,0.0
54074.0,STARLINK-5192,PAYLOAD,2022-11-19 14:00:01,15.49863867,0.0001739,53.2156,0.9896,37.1488,120.4217,0.00098025,0.00055538,0.0,0 STARLINK-5192,1 54074U 22136Z   22323.58334491  .00055538  00000-0  98025-3 0  9996,2 54074  53.2156   0.9896 0001739  37.1488 120.4217 15.49863867  1305,6795.261,92.911,418.3080000000001,415.944,0.0
54074.0,STARLINK-5192,PAYLOAD,2022-11-19 22:00:00,15.4987852,0.000153,53.2155,359.3946,41.9211,176.5696,0.00077292,0.00043651,0.0,0 STARLINK-5192,1 54074U 22136Z   22323.91667824  .00043651  00000-0  77292-3 0  9998,2 54074  53.2155 359.3946 0001530  41.9211 176.5696 15.49878520  1302,6795.218000000003,92.911,418.12300000000016,416.043,0.0
54074.0,STARLINK-5192,PAYLOAD,2022-11-20 14:00:01,15.49855688,0.0001638,53.2152,356.2104,31.9635,308.3977,0.00035627,0.00019799,0.0,0 STARLINK-5192,1 54074U 22136Z   22324.58334491  .00019799  00000-0  35627-3 0  9995,2 54074  53.2152 356.2104 0001638  31.9635 308.3977 15.49855688  5366,6795.285,92.912,418.263,416.037,0.0
54074.0,STARLINK-5192,PAYLOAD,2022-11-20 22:00:00,15.4990786,0.0001401,53.2164,354.6126,31.6663,9.5775,-0.0021269,-0.00119439,0.0,0 STARLINK-5192,1 54074U 22136Z   22324.91667824 -.00119439  00000-0 -21269-2 0  9991,2 54074  53.2164 354.6126 0001401  31.6663   9.5775 15.49907860  1307,6795.132,92.909,417.949,416.045,0.0
54074.0,STARLINK-5192,PAYLOAD,2022-11-21 08:00:01,15.49729162,0.0001450999999999,53.2174,352.6199,49.8246,157.5255,-0.0136,-0.00711603,0.0,0 STARLINK-5192,1 54074U 22136Z   22325.33334491 -.00711603  00000-0 -13600-1 0  9999,2 54074  53.2174 352.6199 0001451  49.8246 157.5255 15.49729162  5486,6795.655,92.919,418.506,416.534,0.0
54074.0,STARLINK-5192,PAYLOAD,2022-11-21 14:00:01,15.491672400000002,0.0001671,53.2166,351.4258,42.2347,120.6307,-0.015793,-0.00802108,0.0,0 STARLINK-5192,1 54074U 22136Z   22325.58334491 -.00802108  00000-0 -15793-1 0  9992,2 54074  53.2166 351.4258 0001671  42.2347 120.6307 15.49167240  5520,6797.2980000000025,92.953,420.299,418.027,0.0
54074.0,STARLINK-5192,PAYLOAD,2022-11-21 22:00:00,15.48584206,0.0001607,53.2174,349.8321,43.0502,179.5375,-0.024256,-0.01198343,0.0,0 STARLINK-5192,1 54074U 22136Z   22325.91667824 -.01198343  00000-0 -24256-1 0  9992,2 54074  53.2174 349.8321 0001607  43.0502 179.5375 15.48584206  1306,6799.004,92.988,421.962,419.776,0.0
54074.0,STARLINK-5192,PAYLOAD,2022-11-22 14:00:01,15.46677103,0.0001801,53.2168,346.6591,25.9795,313.3922,-0.019771,-0.00922019,0.0,0 STARLINK-5192,1 54074U 22136Z   22326.58335648 -.00922019  00000-0 -19771-1 0  9992,2 54074  53.2168 346.6591 0001801  25.9795 313.3922 15.46677103  1305,6804.592,93.103,427.682,425.231,0.0
54074.0,STARLINK-5192,PAYLOAD,2022-11-22 22:00:00,15.46074825,0.0001649,53.2173,345.0728,11.5805,24.3667,-0.028419,-0.01277845,0.0,0 STARLINK-5192,1 54074U 22136Z   22326.91667824 -.01277845  00000-0 -28419-1 0  9993,2 54074  53.2173 345.0728 0001649  11.5805  24.3667 15.46074825  5726,6806.359,93.139,429.346,427.101,0.0
54074.0,STARLINK-5192,PAYLOAD,2022-11-23 14:00:01,15.44322164,0.0001809,53.2166,341.9108,40.9736,105.4391,-0.028911,-0.01228739,0.0,0 STARLINK-5192,1 54074U 22136Z   22327.58334491 -.01228739  00000-0 -28911-1 0  9993,2 54074  53.2166 341.9108 0001809  40.9736 105.4391 15.44322164  1307,6811.507,93.245,434.605,432.14,0.0
54074.0,STARLINK-5192,PAYLOAD,2022-11-23 16:00:00,15.44089908,0.0001597,53.2169,341.5149,45.6048,204.3346,-0.02857,-0.01206721,0.0,0 STARLINK-5192,1 54074U 22136Z   22327.66667824 -.01206721  00000-0 -28570-1 0  9999,2 54074  53.2169 341.5149 0001597  45.6048 204.3346 15.44089908  5841,6812.191,93.259,435.143,432.968,0.0
54074.0,STARLINK-5192,PAYLOAD,2022-11-23 22:00:00,15.43449577,0.0001674,53.217,340.3304,43.973,156.1266,-0.029253,-0.01208713,0.0,0 STARLINK-5192,1 54074U 22136Z   22327.91667824 -.01208713  00000-0 -29253-1 0  9999,2 54074  53.2170 340.3304 0001674  43.9730 156.1266 15.43449577  1301,6814.074000000001,93.298,437.08,434.799,0.0
54074.0,STARLINK-5192,PAYLOAD,2022-11-24 14:00:01,15.41738822,0.0001513,53.2164,337.1808,44.2293,260.1331,-0.031125,-0.01213259,0.0,0 STARLINK-5192,1 54074U 22136Z   22328.58334491 -.01213259  00000-0 -31125-1 0  9996,2 54074  53.2164 337.1808 0001513  44.2293 260.1331 15.41738822  1308,6819.114000000001,93.401,442.011,439.948,0.0
54074.0,STARLINK-5192,PAYLOAD,2022-11-24 22:00:00,15.40879954,0.0001512,53.2169,335.6063,34.1308,320.8215,-0.031967,-0.0121094,0.0,0 STARLINK-5192,1 54074U 22136Z   22328.91667824 -.01210940  00000-0 -31967-1 0  9990,2 54074  53.2169 335.6063 0001512  34.1308 320.8215 15.40879954  1309,6821.648,93.453,444.544,442.482,0.0
54074.0,STARLINK-5192,PAYLOAD,2022-11-25 14:00:01,15.39163443,0.0001639,53.2164,332.469,39.394,53.6432,-0.033695,-0.01206135,0.0,0 STARLINK-5192,1 54074U 22136Z   22329.58334491 -.01206135  00000-0 -33695-1 0  9996,2 54074  53.2164 332.4690 0001639  39.3940  53.6432 15.39163443  1303,6826.719,93.557,449.703,447.465,0.0
54074.0,STARLINK-5192,PAYLOAD,2022-11-25 22:00:00,15.38316915,0.0001672,53.2168,330.9011,40.1523,100.3788,-0.035153,-0.0122211,0.0,0 STARLINK-5192,1 54074U 22136Z   22329.91667824 -.01222110  00000-0 -35153-1 0  9994,2 54074  53.2168 330.9011 0001672  40.1523 100.3788 15.38316915  1308,6829.223000000001,93.609,452.23,449.946,0.0
54074.0,STARLINK-5192,PAYLOAD,2022-11-26 14:00:01,15.36605078,0.0001603,53.2166,327.7756,43.9255,188.5091,-0.037265,-0.01224766,0.0,0 STARLINK-5192,1 54074U 22136Z   22330.58334491 -.01224766  00000-0 -37265-1 0  9995,2 54074  53.2166 327.7756 0001603  43.9255 188.5091 15.36605078  6290,6834.294,93.713,457.255,455.064,0.0
54074.0,STARLINK-5192,PAYLOAD,2022-11-26 22:00:00,15.35735601,0.0001541999999999,53.2169,326.2138,41.6354,235.2134,-0.037728,-0.01207272,0.0,0 STARLINK-5192,1 54074U 22136Z   22330.91667824 -.01207272  00000-0 -37728-1 0  9998,2 54074  53.2169 326.2138 0001542  41.6354 235.2134 15.35735601  1308,6836.873000000001,93.766,459.793,457.684,0.0
54074.0,STARLINK-5192,PAYLOAD,2022-11-27 14:00:01,15.34046101,0.0001624,53.2167,323.1006,35.271,327.2902,-0.04103,-0.01257887,0.0,0 STARLINK-5192,1 54074U 22136Z   22331.58334491 -.01257887  00000-0 -41030-1 0  9991,2 54074  53.2167 323.1006 0001624  35.2710 327.2902 15.34046101  1306,6841.892,93.869,464.86800000000005,462.646,0.0
54074.0,STARLINK-5192,PAYLOAD,2022-11-27 22:00:00,15.331574300000002,0.000165,53.217,321.5448,33.6588,10.2361,-0.040598,-0.01197158,0.0,0 STARLINK-5192,1 54074U 22136Z   22331.91667824 -.01197158  00000-0 -40598-1 0  9999,2 54074  53.2170 321.5448 0001650  33.6588  10.2361 15.33157430  1301,6844.536,93.924,467.53,465.272,0.0
54074.0,STARLINK-5192,PAYLOAD,2022-11-28 00:00:00,15.32941892,0.0001824,53.2174,321.1563,39.3904,104.6739,-0.040799,-0.01195133,0.0,0 STARLINK-5192,1 54074U 22136Z   22332.00001157 -.01195133  00000-0 -40799-1 0  9995,2 54074  53.2174 321.1563 0001824  39.3904 104.6739 15.32941892  6514,6845.177,93.937,468.291,465.794,0.0
54074.0,STARLINK-5192,PAYLOAD,2022-11-28 22:00:01,15.30605038,0.0001826,53.2171,316.8942,38.1655,123.5565,-0.045002,-0.01239276,0.0,0 STARLINK-5192,1 54074U 22136Z   22332.91668981 -.01239276  00000-0 -45002-1 0  9998,2 54074  53.2171 316.8942 0001826  38.1655 123.5565 15.30605038  1301,6852.143,94.08,475.259,472.757,0.0
